NORAD_CAT_ID,OBJECT_NAME,OBJECT_TYPE,EPOCH,MEAN_MOTION,ECCENTRICITY,INCLINATION,RA_OF_ASC_NODE,ARG_OF_PERICENTER,MEAN_ANOMALY,BSTAR,MEAN_MOTION_DOT,MEAN_MOTION_DDOT,TLE_LINE0,TLE_LINE1,TLE_LINE2,SEMIMAJOR_AXIS,PERIOD,APOGEE,PERIGEE,DECAYED
53821.0,STARLINK-4752,PAYLOAD,2023-02-22 14:00:01,15.62917728,0.0001166,53.2151,204.4186,76.6487,139.4615,-0.0079466,-0.00674852,0.0,0 STARLINK-4752,1 53821U 22114D   23053.58334491 -.00674852  00000-0 -79466-2 0  9997,2 53821  53.2151 204.4186 0001166  76.6487 139.4615 15.62917728  1306,6757.371,92.135,380.024,378.448,0.0
53821.0,STARLINK-4752,PAYLOAD,2023-02-22 22:00:00,15.62449596,9.95e-05,53.2147,202.7956,64.2434,228.1437,-0.0075941,-0.00636169,0.0,0 STARLINK-4752,1 53821U 22114D   23053.91667824 -.00636169  00000-0 -75941-2 0  9996,2 53821  53.2147 202.7956 0000995  64.2434 228.1437 15.62449596  1302,6758.721,92.163,381.258,379.913,0.0
53821.0,STARLINK-4752,PAYLOAD,2023-02-23 08:00:01,15.61872923,0.0001064,53.2146,200.7651,79.3281,37.6427,-0.0076306,-0.00625775,0.0,0 STARLINK-4752,1 53821U 22114D   23054.33334491 -.00625775  00000-0 -76306-2 0  9991,2 53821  53.2146 200.7651 0001064  79.3281  37.6427 15.61872923 25330,6760.384,92.197,382.968,381.53,0.0
53821.0,STARLINK-4752,PAYLOAD,2023-02-23 14:00:01,15.61547043,0.0001014,53.2147,199.5506,71.0007,12.3072,-0.0083051,-0.00668884,0.0,0 STARLINK-4752,1 53821U 22114D   23054.58334491 -.00668884  00000-0 -83051-2 0  9991,2 53821  53.2147 199.5506 0001014  71.0007  12.3072 15.61547043  1304,6761.325,92.216,383.875,382.504,0.0
53821.0,STARLINK-4752,PAYLOAD,2023-02-23 22:00:00,15.61090369,0.0001128,53.2144,197.9308,66.8803,91.0594,-0.0082295,-0.0065248,0.0,0 STARLINK-4752,1 53821U 22114D   23054.91667824 -.00652480  00000-0 -82295-2 0  9991,2 53821  53.2144 197.9308 0001128  66.8803  91.0594 15.61090369  1302,6762.643,92.243,385.271,383.745,0.0
53821.0,STARLINK-4752,PAYLOAD,2023-02-24 02:00:01,15.60863675,0.0001008,53.2146,197.1197,76.0092,299.0481,-0.008536,-0.00669421,0.0,0 STARLINK-4752,1 53821U 22114D   23055.08334491 -.00669421  00000-0 -85360-2 0  9990,2 53821  53.2146 197.1197 0001008  76.0092 299.0481 15.60863675 25445,6763.298,92.257,385.845,384.481,0.0
53821.0,STARLINK-4752,PAYLOAD,2023-02-24 14:00:01,15.60176963,0.0001122,53.2148,194.6922,79.9032,225.6734,-0.008697,-0.00664608,0.0,0 STARLINK-4752,1 53821U 22114D   23055.58334491 -.00664608  00000-0 -86970-2 0  9995,2 53821  53.2148 194.6922 0001122  79.9032 225.6734 15.60176963  1300,6765.282,92.297,387.907,386.388,0.0
53821.0,STARLINK-4752,PAYLOAD,2023-02-24 22:00:00,15.59742398,0.0001085,53.2146,193.0756,64.4073,314.1509,-0.0091077,-0.00682884,0.0,0 STARLINK-4752,1 53821U 22114D   23055.91667824 -.00682884  00000-0 -91077-2 0  9991,2 53821  53.2146 193.0756 0001085  64.4073 314.1509 15.59742398  1301,6766.539,92.323,389.138,387.67,0.0
53821.0,STARLINK-4752,PAYLOAD,2023-02-25 02:00:01,15.59489057,0.0001226,53.2149,192.2662,78.4112,156.4539,-0.0088612,-0.00659899,0.0,0 STARLINK-4752,1 53821U 22114D   23056.08334491 -.00659899  00000-0 -88612-2 0  9992,2 53821  53.2149 192.2662 0001226  78.4112 156.4539 15.59489057 25606,6767.272,92.338,389.966,388.307,0.0
53821.0,STARLINK-4752,PAYLOAD,2023-02-25 14:00:01,15.58797839,0.0001338,53.2146,189.8439,76.6978,86.2233,-0.0088809,-0.00645325,0.0,0 STARLINK-4752,1 53821U 22114D   23056.58334491 -.00645325  00000-0 -88809-2 0  9994,2 53821  53.2146 189.8439 0001338  76.6978  86.2233 15.58797839  1302,6769.272,92.379,392.043,390.231,0.0
53821.0,STARLINK-4752,PAYLOAD,2023-02-25 22:00:00,15.58373525,0.0001321,53.2139,188.2302,77.0297,157.2281,-0.0096323,-0.00685269,0.0,0 STARLINK-4752,1 53821U 22114D   23056.91667824 -.00685269  00000-0 -96323-2 0  9991,2 53821  53.2139 188.2302 0001321  77.0297 157.2281 15.58373525 25734,6770.501,92.404,393.26,391.472,0.0
53821.0,STARLINK-4752,PAYLOAD,2023-02-26 14:00:01,15.57432023,0.0001165,53.214,185.0054,80.3146,295.0156,-0.0093282,-0.00643741,0.0,0 STARLINK-4752,1 53821U 22114D   23057.58334491 -.00643741  00000-0 -93282-2 0  9996,2 53821  53.2140 185.0054 0001165  80.3146 295.0156 15.57432023 25832,6773.229,92.46,395.883,394.305,0.0
53821.0,STARLINK-4752,PAYLOAD,2023-02-27 00:00:00,15.56890608,0.0001336,53.2139,182.9918,79.0407,113.332,-0.01028,-0.0069102,0.0,0 STARLINK-4752,1 53821U 22114D   23058.00001157 -.00691020  00000-0 -10280-1 0  9993,2 53821  53.2139 182.9918 0001336  79.0407 113.3320 15.56890608  1307,6774.799,92.492,397.57,395.759,0.0
53821.0,STARLINK-4752,PAYLOAD,2023-02-27 14:00:01,15.56058113,0.0001456,53.2141,180.1767,76.026,146.7906,-0.00968,-0.00635217,0.0,0 STARLINK-4752,1 53821U 22114D   23058.58334491 -.00635217  00000-0 -96800-2 0  9995,2 53821  53.2141 180.1767 0001456  76.0260 146.7906 15.56058113  1306,6777.216,92.542,400.067,398.094,0.0
53821.0,STARLINK-4752,PAYLOAD,2023-02-27 22:00:01,15.55641234,0.0001412,53.2141,178.5692,75.0559,215.8751,-0.010761,-0.00690429,0.0,0 STARLINK-4752,1 53821U 22114D   23058.91668981 -.00690429  00000-0 -10761-1 0  9993,2 53821  53.2141 178.5692 0001412  75.0559 215.8751 15.55641234 26041,6778.426,92.566,401.248,399.334,0.0
53821.0,STARLINK-4752,PAYLOAD,2023-02-28 14:00:01,15.5470277,0.0001394,53.2141,175.358,75.8792,349.4851,-0.010423,-0.00649275,0.0,0 STARLINK-4752,1 53821U 22114D   23059.58334491 -.00649275  00000-0 -10423-1 0  9991,2 53821  53.2141 175.3580 0001394  75.8792 349.4851 15.54702770  1307,6781.154,92.622,403.964,402.073,0.0
53821.0,STARLINK-4752,PAYLOAD,2023-02-28 18:00:00,15.5445338,0.0001399,53.2141,174.5563,77.5599,201.089,-0.0097502,-0.00605181,0.0,0 STARLINK-4752,1 53821U 22114D   23059.75001157 -.00605181  00000-0 -97502-2 0  9992,2 53821  53.2141 174.5563 0001399  77.5599 201.0890 15.54453380 26176,6781.879,92.637,404.693,402.795,0.0
53821.0,STARLINK-4752,PAYLOAD,2023-02-28 22:00:00,15.54270066,0.0001378,53.2136,173.7534,77.376,54.4033,-0.011175,-0.00682243,0.0,0 STARLINK-4752,1 53821U 22114D   23059.91667824 -.00682243  00000-0 -11175-1 0  9994,2 53821  53.2136 173.7534 0001378  77.3760  54.4033 15.54270066  1309,6782.412,92.648,405.212,403.343,0.0
53821.0,STARLINK-4752,PAYLOAD,2023-03-01 06:00:00,15.53785683,0.0001321,53.2137,172.1491,93.9329,103.7298,-0.010392,-0.00627596,0.0,0 STARLINK-4752,1 53821U 22114D   23060.25001157 -.00627596  00000-0 -10392-1 0  9994,2 53821  53.2137 172.1491 0001321  93.9329 103.7298 15.53785683 26255,6783.822,92.677,406.583,404.791,0.0
53821.0,STARLINK-4752,PAYLOAD,2023-03-01 22:00:00,15.52905863,0.0001185,53.2135,168.9478,85.3216,242.4431,-0.011884,-0.00689518,0.0,0 STARLINK-4752,1 53821U 22114D   23060.91667824 -.00689518  00000-0 -11884-1 0  9995,2 53821  53.2135 168.9478 0001185  85.3216 242.4431 15.52905863 26353,6786.384,92.729,409.053,407.445,0.0
53821.0,STARLINK-4752,PAYLOAD,2023-03-02 00:00:00,15.52770961,0.0001185,53.2138,168.5472,85.9383,347.9453,-0.011387,-0.00659938,0.0,0 STARLINK-4752,1 53821U 22114D   23061.00001157 -.00659938  00000-0 -11387-1 0  9998,2 53821  53.2138 168.5472 0001185  85.9383 347.9453 15.52770961  1309,6786.777,92.737,409.446,407.838,0.0
53821.0,STARLINK-4752,PAYLOAD,2023-03-02 20:00:01,15.51648122,0.0001093,53.214,164.5517,74.3416,338.7425,-0.012153,-0.00674954,0.0,0 STARLINK-4752,1 53821U 22114D   23061.83334491 -.00674954  00000-0 -12153-1 0  9996,2 53821  53.2140 164.5517 0001093  74.3416 338.7425 15.51648122  1304,6790.051,92.805,412.658,411.174,0.0
53821.0,STARLINK-4752,PAYLOAD,2023-03-03 14:00:01,15.50578594,0.0001158,53.2147,160.9607,77.6074,205.8601,-0.011366,-0.00612364,0.0,0 STARLINK-4752,1 53821U 22114D   23062.58334491 -.00612364  00000-0 -11366-1 0  9991,2 53821  53.2147 160.9607 0001158  77.6074 205.8601 15.50578594 26614,6793.173,92.869,415.824,414.251,0.0
53821.0,STARLINK-4752,PAYLOAD,2023-03-03 22:00:00,15.50168462,0.0001022,53.2145,159.3656,73.884,271.0628,-0.013064,-0.00686971,0.0,0 STARLINK-4752,1 53821U 22114D   23062.91667824 -.00686971  00000-0 -13064-1 0  9999,2 53821  53.2145 159.3656 0001022  73.8840 271.0628 15.50168462  1309,6794.371,92.893,416.93,415.541,0.0
53821.0,STARLINK-4752,PAYLOAD,2023-03-04 10:00:01,15.49471405,0.0001162,53.2145,156.9765,80.8366,175.3974,-0.012984,-0.00667719,0.0,0 STARLINK-4752,1 53821U 22114D   23063.41668981 -.00667719  00000-0 -12984-1 0  9999,2 53821  53.2145 156.9765 0001162  80.8366 175.3974 15.49471405 26746,6796.408,92.935,419.063,417.484,0.0
53821.0,STARLINK-4752,PAYLOAD,2023-03-04 14:00:01,15.49214037,0.0001167,53.2145,156.1817,69.6202,36.6866,-0.011966,-0.00614012,0.0,0 STARLINK-4752,1 53821U 22114D   23063.58334491 -.00614012  00000-0 -11966-1 0  9990,2 53821  53.2145 156.1817 0001167  69.6202  36.6866 15.49214037  1305,6797.161,92.95,419.819,418.233,0.0
53821.0,STARLINK-4752,PAYLOAD,2023-03-04 22:00:00,15.48798761,0.0001196,53.214,154.5897,79.6666,86.4802,-0.013602,-0.00681804,0.0,0 STARLINK-4752,1 53821U 22114D   23063.91667824 -.00681804  00000-0 -13602-1 0  9998,2 53821  53.2140 154.5897 0001196  79.6666  86.4802 15.48798761  1300,6798.376,92.975,421.054,419.428,0.0
53821.0,STARLINK-4752,PAYLOAD,2023-03-05 08:00:01,15.48233353,0.0001158,53.2144,152.6022,94.1608,236.0922,-0.013903,-0.00683027,0.0,0 STARLINK-4752,1 53821U 22114D   23064.33335648 -.00683027  00000-0 -13903-1 0  9994,2 53821  53.2144 152.6022 0001158  94.1608 236.0922 15.48233353 26886,6800.031,93.009,422.683,421.109,0.0
53821.0,STARLINK-4752,PAYLOAD,2023-03-05 14:00:01,15.47839846,0.0001174,53.2143,151.4122,82.4018,201.8198,-0.012246,-0.00599789,0.0,0 STARLINK-4752,1 53821U 22114D   23064.58334491 -.00599789  00000-0 -12246-1 0  9996,2 53821  53.2143 151.4122 0001174  82.4018 201.8198 15.47839846  1309,6801.184,93.033,423.847,422.25,0.0
53821.0,STARLINK-4752,PAYLOAD,2023-03-05 22:00:00,15.47427797,0.0001081,53.2142,149.8233,83.0787,259.3415,-0.014257,-0.00689495,0.0,0 STARLINK-4752,1 53821U 22114D   23064.91667824 -.00689495  00000-0 -14257-1 0  9990,2 53821  53.2142 149.8233 0001081  83.0787 259.3415 15.47427797  1307,6802.391,93.058,424.991,423.52,0.0
